[{"OBJECT_NAME":"STARLINK-3901","OBJECT_ID":"2022-051AQ","EPOCH":"2026-03-09T10:21:06.774624","MEAN_MOTION":15.08837076,"ECCENTRICITY":0.00012495,"INCLINATION":53.2173,"RA_OF_ASC_NODE":120.2807,"ARG_OF_PERICENTER":94.5192,"MEAN_ANOMALY":265.5943,"EPHEMERIS_TYPE":0,"CLASSIFICATION_TYPE":"U","NORAD_CAT_ID":52574,"ELEMENT_SET_NO":999,"REV_AT_EPOCH":21154,"BSTAR":-1.314571e-5,"MEAN_MOTION_DOT":-4.97e-6,"MEAN_MOTION_DDOT":0},{"OBJECT_NAME":"FENGYUN 1C DEB","OBJECT_ID":"1999-025BZN","EPOCH":"2026-03-03T04:13:23.729376","MEAN_MOTION":14.87557859,"ECCENTRICITY":0.01425437,"INCLINATION":98.383,"RA_OF_ASC_NODE":189.7124,"ARG_OF_PERICENTER":136.8849,"MEAN_ANOMALY":224.3635,"EPHEMERIS_TYPE":0,"CLASSIFICATION_TYPE":"U","NORAD_CAT_ID":31608,"ELEMENT_SET_NO":999,"REV_AT_EPOCH":99828,"BSTAR":0.0013394908,"MEAN_MOTION_DOT":0.00014627,"MEAN_MOTION_DDOT":0}]
